[
    {
        "Altitude(m)": 617710.6637823955,
        "Argument of Periapsis(deg)": 0.0,
        "Eccentricity": 0.0,
        "Inclination(deg)": 60.0,
        "Latitude(deg)": -41.102725443647444,
        "Longitude(deg)": 9.966751820472023,
        "Mean Anomaly(deg)": -49.09089999999994,
        "RAAN(deg)": 140.0,
        "Satellite Name": "Test1 635",
        "Satellite Number": 635,
        "Semi-Major Axis(m)": 6980739.136638005,
        "Time(s)": 0
    },
    {
        "Altitude(m)": 617517.9617678979,
        "Argument of Periapsis(deg)": 0.00010418945913296404,
        "Eccentricity": 0.0,
        "Inclination(deg)": 60.0,
        "Latitude(deg)": -40.636931183013004,
        "Longitude(deg)": 10.46354392070513,
        "Mean Anomaly(deg)": -48.470793854538094,
        "RAAN(deg)": 139.99957995086024,
        "Satellite Name": "Test1 635",
        "Satellite Number": 635,
        "Semi-Major Axis(m)": 6980739.136638005,
        "Time(s)": 10
    }
]